{
  "type": "FeatureCollection",
  "features": [
    {
      "type": "Feature",
      "properties": {
        "norad_id": 66507,
        "name": "STARLINK-34767",
        "group": "last-30-days",
        "lat": 42.17285934594775,
        "lon": -75.11620957116051,
        "alt_km": 345.95184464757585,
        "timestamp": "2025-12-03T04:52:28.420780+00:00",
        "meta_object_name": "STARLINK-34767",
        "meta_object_id": "2025-263Y",
        "meta_epoch": "2025-12-02T20:00:03.000384",
        "meta_mean_motion": 15.74235495,
        "meta_eccentricity": 0.0001252,
        "meta_inclination": 42.9983,
        "meta_ra_of_asc_node": 183.5818,
        "meta_arg_of_pericenter": 280.8739,
        "meta_mean_anomaly": 242.2413,
        "meta_ephemeris_type": 0,
        "meta_classification_type": "U",
        "meta_norad_cat_id": 66507,
        "meta_element_set_no": 999,
        "meta_rev_at_epoch": 404,
        "meta_bstar": -0.015444,
        "meta_mean_motion_dot": -0.02020654,
        "meta_mean_motion_ddot": 0,
        "tle_line1": "1 66507U 25263Y   25336.83336806 -.02020654  00000+0 -15444-1 0  9997",
        "tle_line2": "2 66507  42.9983 183.5818 0001252 280.8739 242.2413 15.74235495  4043"
      },
      "geometry": {
        "type": "Point",
        "coordinates": [
          -75.11620957116051,
          42.17285934594775
        ]
      }
    },
    {
      "type": "Feature",
      "properties": {
        "norad_id": 66508,
        "name": "STARLINK-35608",
        "group": "last-30-days",
        "lat": 41.005016064664076,
        "lon": -67.59308399607556,
        "alt_km": 346.18539021400375,
        "timestamp": "2025-12-03T04:52:28.420790+00:00",
        "meta_object_name": "STARLINK-35608",
        "meta_object_id": "2025-263Z",
        "meta_epoch": "2025-12-02T20:00:03.000384",
        "meta_mean_motion": 15.74222606,
        "meta_eccentricity": 0.000134,
        "meta_inclination": 42.9983,
        "meta_ra_of_asc_node": 183.5679,
        "meta_arg_of_pericenter": 278.7473,
        "meta_mean_anomaly": 250.1233,
        "meta_ephemeris_type": 0,
        "meta_classification_type": "U",
        "meta_norad_cat_id": 66508,
        "meta_element_set_no": 999,
        "meta_rev_at_epoch": 404,
        "meta_bstar": -0.015289,
        "meta_mean_motion_dot": -0.02001813,
        "meta_mean_motion_ddot": 0,
        "tle_line1": "1 66508U 25263Z   25336.83336806 -.02001813  00000+0 -15289-1 0  9991",
        "tle_line2": "2 66508  42.9983 183.5679 0001340 278.7473 250.1233 15.74222606  4046"
      },
      "geometry": {
        "type": "Point",
        "coordinates": [
          -67.59308399607556,
          41.005016064664076
        ]
      }
    },
    {
      "type": "Feature",
      "properties": {
        "norad_id": 66509,
        "name": "STARLINK-35598",
        "group": "last-30-days",
        "lat": 38.72173707280693,
        "lon": -58.06199976641333,
        "alt_km": 346.40196508899135,
        "timestamp": "2025-12-03T04:52:28.420803+00:00",
        "meta_object_name": "STARLINK-35598",
        "meta_object_id": "2025-263AA",
        "meta_epoch": "2025-12-02T20:00:03.000384",
        "meta_mean_motion": 15.74221311,
        "meta_eccentricity": 0.0001164,
        "meta_inclination": 42.9981,
        "meta_ra_of_asc_node": 183.547,
        "meta_arg_of_pericenter": 279.901,
        "meta_mean_anomaly": 256.6336,
        "meta_ephemeris_type": 0,
        "meta_classification_type": "U",
        "meta_norad_cat_id": 66509,
        "meta_element_set_no": 999,
        "meta_rev_at_epoch": 404,
        "meta_bstar": -0.015241,
        "meta_mean_motion_dot": -0.01996069,
        "meta_mean_motion_ddot": 0,
        "tle_line1": "1 66509U 25263AA  25336.83336806 -.01996069  00000+0 -15241-1 0  9995",
        "tle_line2": "2 66509  42.9981 183.5470 0001164 279.9010 256.6336 15.74221311  4045"
      },
      "geometry": {
        "type": "Point",
        "coordinates": [
          -58.06199976641333,
          38.72173707280693
        ]
      }
    },
    {
      "type": "Feature",
      "properties": {
        "norad_id": 66510,
        "name": "STARLINK-35600",
        "group": "last-30-days",
        "lat": 40.51009104643348,
        "lon": -65.15960604119674,
        "alt_km": 346.1785549374026,
        "timestamp": "2025-12-03T04:52:28.420813+00:00",
        "meta_object_name": "STARLINK-35600",
        "meta_object_id": "2025-263AB",
        "meta_epoch": "2025-12-02T20:00:03.000384",
        "meta_mean_motion": 15.7421957,
        "meta_eccentricity": 0.0001329,
        "meta_inclination": 42.9982,
        "meta_ra_of_asc_node": 183.5617,
        "meta_arg_of_pericenter": 263.1197,
        "meta_mean_anomaly": 267.6715,
        "meta_ephemeris_type": 0,
        "meta_classification_type": "U",
        "meta_norad_cat_id": 66510,
        "meta_element_set_no": 999,
        "meta_rev_at_epoch": 404,
        "meta_bstar": -0.015283,
        "meta_mean_motion_dot": -0.02000897,
        "meta_mean_motion_ddot": 0,
        "tle_line1": "1 66510U 25263AB  25336.83336806 -.02000897  00000+0 -15283-1 0  9999",
        "tle_line2": "2 66510  42.9982 183.5617 0001329 263.1197 267.6715 15.74219570  4042"
      },
      "geometry": {
        "type": "Point",
        "coordinates": [
          -65.15960604119674,
          40.51009104643348
        ]
      }
    },
    {
      "type": "Feature",
      "properties": {
        "norad_id": 66511,
        "name": "STARLINK-35444",
        "group": "last-30-days",
        "lat": 39.36443821219915,
        "lon": -60.38057190410588,
        "alt_km": 346.3203489509515,
        "timestamp": "2025-12-03T04:52:28.420823+00:00",
        "meta_object_name": "STARLINK-35444",
        "meta_object_id": "2025-263AC",
        "meta_epoch": "2025-12-02T20:00:03.000384",
        "meta_mean_motion": 15.74230095,
        "meta_eccentricity": 0.000119,
        "meta_inclination": 42.9983,
        "meta_ra_of_asc_node": 183.5524,
        "meta_arg_of_pericenter": 274.0615,
        "meta_mean_anomaly": 260.5592,
        "meta_ephemeris_type": 0,
        "meta_classification_type": "U",
        "meta_norad_cat_id": 66511,
        "meta_element_set_no": 999,
        "meta_rev_at_epoch": 404,
        "meta_bstar": -0.015372,
        "meta_mean_motion_dot": -0.02011907,
        "meta_mean_motion_ddot": 0,
        "tle_line1": "1 66511U 25263AC  25336.83336806 -.02011907  00000+0 -15372-1 0  9993",
        "tle_line2": "2 66511  42.9983 183.5524 0001190 274.0615 260.5592 15.74230095  4043"
      },
      "geometry": {
        "type": "Point",
        "coordinates": [
          -60.38057190410588,
          39.36443821219915
        ]
      }
    },
    {
      "type": "Feature",
      "properties": {
        "norad_id": 66512,
        "name": "STARLINK-35366",
        "group": "last-30-days",
        "lat": 38.03424379318912,
        "lon": -55.78509141752936,
        "alt_km": 346.5549579770932,
        "timestamp": "2025-12-03T04:52:28.420833+00:00",
        "meta_object_name": "STARLINK-35366",
        "meta_object_id": "2025-263AD",
        "meta_epoch": "2025-12-02T20:00:03.000384",
        "meta_mean_motion": 15.74217272,
        "meta_eccentricity": 0.0001321,
        "meta_inclination": 42.9984,
        "meta_ra_of_asc_node": 183.5424,
        "meta_arg_of_pericenter": 272.1133,
        "meta_mean_anomaly": 266.3395,
        "meta_ephemeris_type": 0,
        "meta_classification_type": "U",
        "meta_norad_cat_id": 66512,
        "meta_element_set_no": 999,
        "meta_rev_at_epoch": 404,
        "meta_bstar": -0.015174,
        "meta_mean_motion_dot": -0.01988133,
        "meta_mean_motion_ddot": 0,
        "tle_line1": "1 66512U 25263AD  25336.83336806 -.01988133  00000+0 -15174-1 0  9997",
        "tle_line2": "2 66512  42.9984 183.5424 0001321 272.1133 266.3395 15.74217272  4041"
      },
      "geometry": {
        "type": "Point",
        "coordinates": [
          -55.78509141752936,
          38.03424379318912
        ]
      }
    },
    {
      "type": "Feature",
      "properties": {
        "norad_id": 66513,
        "name": "STARLINK-35692",
        "group": "last-30-days",
        "lat": 39.96047798911763,
        "lon": -62.7442828819141,
        "alt_km": 346.386732031423,
        "timestamp": "2025-12-03T04:52:28.420843+00:00",
        "meta_object_name": "STARLINK-35692",
        "meta_object_id": "2025-263AE",
        "meta_epoch": "2025-12-02T20:00:03.000384",
        "meta_mean_motion": 15.74230724,
        "meta_eccentricity": 0.0001369,
        "meta_inclination": 42.9982,
        "meta_ra_of_asc_node": 183.5571,
        "meta_arg_of_pericenter": 284.8022,
        "meta_mean_anomaly": 247.9007,
        "meta_ephemeris_type": 0,
        "meta_classification_type": "U",
        "meta_norad_cat_id": 66513,
        "meta_element_set_no": 999,
        "meta_rev_at_epoch": 404,
        "meta_bstar": -0.015414,
        "meta_mean_motion_dot": -0.02016935,
        "meta_mean_motion_ddot": 0,
        "tle_line1": "1 66513U 25263AE  25336.83336806 -.02016935  00000+0 -15414-1 0  9998",
        "tle_line2": "2 66513  42.9982 183.5571 0001369 284.8022 247.9007 15.74230724  4044"
      },
      "geometry": {
        "type": "Point",
        "coordinates": [
          -62.7442828819141,
          39.96047798911763
        ]
      }
    }
  ]
}